[
    {
        "Altitude(m)": 605470.7689181154,
        "Argument of Periapsis(deg)": 0.0,
        "Eccentricity": 0.0,
        "Inclination(deg)": 60.0,
        "Latitude(deg)": 27.988137701624677,
        "Longitude(deg)": -177.7370033299874,
        "Mean Anomaly(deg)": 147.27270000000001,
        "RAAN(deg)": 120.0,
        "Satellite Name": "Test1 537",
        "Satellite Number": 537,
        "Semi-Major Axis(m)": 6980739.136638005,
        "Time(s)": 0
    },
    {
        "Altitude(m)": 605395.8068845402,
        "Argument of Periapsis(deg)": 0.00010418945913296404,
        "Eccentricity": 0.0,
        "Inclination(deg)": 60.0,
        "Latitude(deg)": 27.47382781210699,
        "Longitude(deg)": -177.38381683972693,
        "Mean Anomaly(deg)": 147.8928061454618,
        "RAAN(deg)": 119.99957995086024,
        "Satellite Name": "Test1 537",
        "Satellite Number": 537,
        "Semi-Major Axis(m)": 6980739.136638005,
        "Time(s)": 10
    }
]